ONEWEB-0053             
1 45157U 20008AC  26175.14852151 -.00001820  00000+0 -52428-2 0  9995
2 45157  87.8806  34.8960 0001261  63.3762 296.7495 13.10467546308828
ONEWEB-0054             
1 45158U 20008AD  26175.10777726 -.00000504  00000+0 -14797-2 0  9991
2 45158  87.8838  34.8896 0001866  84.0112 276.1228 13.10339266308937
ONEWEB-0056             
1 45159U 20008AE  26175.15516299 -.00004894  00000+0 -14052-1 0  9992
2 45159  87.8809  34.8714 0001390  96.2198 263.9088 13.10429259309094
ONEWEB-0057             
1 45160U 20008AF  26175.17240079 -.00000588  00000+0 -17205-2 0  9996
2 45160  87.8830  34.8820 0002067  70.4444 289.6907 13.10387974309269
ONEWEB-0058             
1 45161U 20008AG  26175.15920302 -.00000084  00000+0 -27741-3 0  9997
2 45161  87.8818  34.8899 0001604  88.8336 271.2975 13.10370500309338
ONEWEB-0059             
1 45162U 20008AH  26175.15544937 -.00005191  00000+0 -14908-1 0  9997
2 45162  87.8817  34.8898 0002063  73.5793 286.5561 13.10409711309231
ONEWEB-0062             
1 45163U 20008AJ  26175.10255378 -.00001360  00000+0 -39341-2 0  9994
2 45163  87.8833  34.8884 0001305  95.7599 264.3677 13.10351593309093
ONEWEB-0065             
1 45164U 20008AK  26175.13648559  .00005247  00000+0  15006-1 0  9992
2 45164  87.8842  34.8904 0002195  71.9011 288.2356 13.10282767308791
ONEWEB-0066             
1 45424U 20020A   26175.08970531  .00000511  00000+0  14066-2 0  9992
2 45424  87.8882  19.6969 0001656  83.9977 276.1340 13.11417365303587
ONEWEB-0067             
1 45425U 20020B   26175.28012929 -.00000442  00000+0 -12830-2 0  9995
2 45425  87.8905  19.5815 0001823  81.3770 278.7564 13.11423676303669
ONEWEB-0080             
1 45426U 20020C   26175.27972629 -.00000427  00000+0 -12417-2 0  9991
2 45426  87.8897  19.6556 0001694  96.5146 263.6175 13.11414575303630
ONEWEB-0090             
1 45427U 20020D   26175.07966948  .00000160  00000+0  41440-3 0  9998
2 45427  87.8895  19.7003 0001803  88.9492 271.1842 13.11418375303578
ONEWEB-0061             
1 45428U 20020E   26175.26419706  .00000210  00000+0  55733-3 0  9991
2 45428  87.8890  19.6481 0001780  87.3042 272.8289 13.11414152303551
ONEWEB-0081             
1 45429U 20020F   26175.09309561  .00000178  00000+0  46743-3 0  9994
2 45429  87.8883  19.6915 0001578  79.2623 280.8683 13.11420688303644
ONEWEB-0069             
1 45430U 20020G   26175.09492904  .00000364  00000+0  99110-3 0  9993
2 45430  87.8884  19.6946 0001434 104.5441 255.5846 13.11415359303573
ONEWEB-0031             
1 45431U 20020H   26175.13038134 -.00000581  00000+0 -16763-2 0  9995
2 45431  87.8882  19.6920 0001774  93.3358 266.7973 13.11415610303567
ONEWEB-0027             
1 45432U 20020J   26175.24729438 -.00000004  00000+0 -42847-4 0  9996
2 45432  87.9133   4.4606 0002178 102.2601 257.8775 13.17651490307289
ONEWEB-0064             
1 45433U 20020K   26175.28128545 -.00000425  00000+0 -12347-2 0  9990
2 45433  87.8886  19.6538 0001836  92.3105 267.8233 13.11416074303618
ONEWEB-0018             
1 45434U 20020L   26175.08447357  .00000387  00000+0  10559-2 0  9992
2 45434  87.8886  19.6930 0001397  85.0129 275.1158 13.11421081303535
ONEWEB-0083             
1 45435U 20020M   26175.07458093 -.00000025  00000+0 -10627-3 0  9999
2 45435  87.8892  19.6891 0001766  88.7856 271.3474 13.11419384303572
ONEWEB-0095             
1 45436U 20020N   26175.06608657 -.00000344  00000+0 -10065-2 0  9991
2 45436  87.8888  19.6993 0002556  89.1735 270.9686 13.11416948303573
ONEWEB-0092             
1 45437U 20020P   26175.09647034 -.00000011  00000+0 -67709-4 0  9997
2 45437  87.8889  19.6846 0002098  82.9199 277.2168 13.11414393303698
ONEWEB-0085             
1 45438U 20020Q   26175.07430591 -.00000091  00000+0 -29121-3 0  9997
2 45438  87.8886  19.6956 0001831  87.9229 272.2109 13.11418592303573
ONEWEB-0096             
1 45439U 20020R   26175.07612287  .00000035  00000+0  62452-4 0  9993
2 45439  87.8890  19.6915 0001937  88.1369 271.9981 13.11416982303563
ONEWEB-0037             
1 45440U 20020S   26175.25935899  .00000294  00000+0  78869-3 0  9997
2 45440  87.8903  19.6279 0001888  86.3385 273.7959 13.11911706303622
ONEWEB-0042             
1 45441U 20020T   26175.06582499 -.00000331  00000+0 -96924-3 0  9997
2 45441  87.8890  19.6900 0001822  84.4608 275.6727 13.11418236303561
ONEWEB-0098             
1 45442U 20020U   26175.06171694 -.00000490  00000+0 -14185-2 0  9993
2 45442  87.8889  19.6999 0001786  89.4694 270.6639 13.11418024303547
ONEWEB-0055             
1 45443U 20020V   26175.26929337  .00000011  00000+0 -36650-5 0  9993
2 45443  87.8889  19.6573 0001798  89.7543 270.3791 13.11415736303548
ONEWEB-0093             
1 45444U 20020W   26175.09663130  .00002842  00000+0  79819-2 0  9995
2 45444  87.8892  19.6847 0002073  69.4260 290.7090 13.11404692303586
ONEWEB-0029             
1 45445U 20020X   26175.27633074 -.00000263  00000+0 -77781-3 0  9994
2 45445  87.8879  19.6575 0001684  81.0100 279.1219 13.11414192303580
