OBJECT_NAME,OBJECT_ID,EPOCH,MEAN_MOTION,ECCENTRICITY,INCLINATION,RA_OF_ASC_NODE,ARG_OF_PERICENTER,MEAN_ANOMALY,EPHEMERIS_TYPE,CLASSIFICATION_TYPE,NORAD_CAT_ID,ELEMENT_SET_NO,REV_AT_EPOCH,BSTAR,MEAN_MOTION_DOT,MEAN_MOTION_DDOT
ONEWEB-0053,2020-008AC,2026-06-24T03:33:52.258464,13.10467546,.00012613,87.8806,34.8960,63.3762,296.7495,0,U,45157,999,30882,-.52428402E-2,-.182E-4,0
ONEWEB-0054,2020-008AD,2026-06-24T02:35:11.955264,13.10339266,.00018667,87.8838,34.8896,84.0112,276.1228,0,U,45158,999,30893,-.14797387E-2,-.504E-5,0
ONEWEB-0056,2020-008AE,2026-06-24T03:43:26.082336,13.10429259,.00013907,87.8809,34.8714,96.2198,263.9088,0,U,45159,999,30909,-.1405186E-1,-.4894E-4,0
ONEWEB-0057,2020-008AF,2026-06-24T04:08:15.428256,13.10387974,.00020671,87.8830,34.8820,70.4444,289.6907,0,U,45160,999,30926,-.17205168E-2,-.588E-5,0
ONEWEB-0058,2020-008AG,2026-06-24T03:49:15.140928,13.10370500,.0001604,87.8818,34.8899,88.8336,271.2975,0,U,45161,999,30933,-.27740597E-3,-.84E-6,0
ONEWEB-0059,2020-008AH,2026-06-24T03:43:50.825568,13.10409711,.0002063,87.8817,34.8898,73.5793,286.5561,0,U,45162,999,30923,-.14908295E-1,-.5191E-4,0
ONEWEB-0062,2020-008AJ,2026-06-24T02:27:40.646592,13.10351593,.00013058,87.8833,34.8884,95.7599,264.3677,0,U,45163,999,30909,-.39341115E-2,-.136E-4,0
ONEWEB-0065,2020-008AK,2026-06-24T03:16:32.354976,13.10282767,.00021958,87.8842,34.8904,71.9011,288.2356,0,U,45164,999,30879,.15005954E-1,.5247E-4,0
ONEWEB-0066,2020-020A,2026-06-24T02:09:10.538784,13.11417365,.0001656,87.8882,19.6969,83.9977,276.1340,0,U,45424,999,30358,.14065531E-2,.511E-5,0
ONEWEB-0067,2020-020B,2026-06-24T06:43:23.170656,13.11423676,.00018237,87.8905,19.5815,81.3770,278.7564,0,U,45425,999,30366,-.12830348E-2,-.442E-5,0
ONEWEB-0080,2020-020C,2026-06-24T06:42:48.351456,13.11414575,.00016943,87.8897,19.6556,96.5146,263.6175,0,U,45426,999,30363,-.12416903E-2,-.427E-5,0
ONEWEB-0090,2020-020D,2026-06-24T01:54:43.443072,13.11418375,.0001803,87.8895,19.7003,88.9492,271.1842,0,U,45427,999,30357,.41439518E-3,.16E-5,0
ONEWEB-0061,2020-020E,2026-06-24T06:20:26.625984,13.11414152,.00017808,87.8890,19.6481,87.3042,272.8289,0,U,45428,999,30355,.55733364E-3,.21E-5,0
ONEWEB-0081,2020-020F,2026-06-24T02:14:03.460704,13.11420688,.00015786,87.8883,19.6915,79.2623,280.8683,0,U,45429,999,30364,.46742864E-3,.178E-5,0
ONEWEB-0069,2020-020G,2026-06-24T02:16:41.869056,13.11415359,.00014348,87.8884,19.6946,104.5441,255.5846,0,U,45430,999,30357,.99109505E-3,.364E-5,0
ONEWEB-0031,2020-020H,2026-06-24T03:07:44.947776,13.11415610,.00017746,87.8882,19.6920,93.3358,266.7973,0,U,45431,999,30356,-.16763173E-2,-.581E-5,0
ONEWEB-0027,2020-020J,2026-06-24T05:56:06.234432,13.17651490,.0002178,87.9133,4.4606,102.2601,257.8775,0,U,45432,999,30728,-.42846949E-4,-.4E-7,0
ONEWEB-0064,2020-020K,2026-06-24T06:45:03.062880,13.11416074,.00018366,87.8886,19.6538,92.3105,267.8233,0,U,45433,999,30361,-.12346871E-2,-.425E-5,0
ONEWEB-0018,2020-020L,2026-06-24T02:01:38.516448,13.11421081,.00013976,87.8886,19.6930,85.0129,275.1158,0,U,45434,999,30353,.10558898E-2,.387E-5,0
ONEWEB-0083,2020-020M,2026-06-24T01:47:23.792352,13.11419384,.00017663,87.8892,19.6891,88.7856,271.3474,0,U,45435,999,30357,-.10626554E-3,-.25E-6,0
ONEWEB-0095,2020-020N,2026-06-24T01:35:09.879648,13.11416948,.00025561,87.8888,19.6993,89.1735,270.9686,0,U,45436,999,30357,-.10065359E-2,-.344E-5,0
ONEWEB-0092,2020-020P,2026-06-24T02:18:55.037376,13.11414393,.00020984,87.8889,19.6846,82.9199,277.2168,0,U,45437,999,30369,-.67709206E-4,-.11E-6,0
ONEWEB-0085,2020-020Q,2026-06-24T01:47:00.030624,13.11418592,.00018312,87.8886,19.6956,87.9229,272.2109,0,U,45438,999,30357,-.29120519E-3,-.91E-6,0
ONEWEB-0096,2020-020R,2026-06-24T01:49:37.015968,13.11416982,.00019372,87.8890,19.6915,88.1369,271.9981,0,U,45439,999,30356,.62452217E-4,.35E-6,0
ONEWEB-0037,2020-020S,2026-06-24T06:13:28.616736,13.11911706,.00018887,87.8903,19.6279,86.3385,273.7959,0,U,45440,999,30362,.78868792E-3,.294E-5,0
ONEWEB-0042,2020-020T,2026-06-24T01:34:47.279136,13.11418236,.00018224,87.8890,19.6900,84.4608,275.6727,0,U,45441,999,30356,-.96923691E-3,-.331E-5,0
ONEWEB-0098,2020-020U,2026-06-24T01:28:52.343616,13.11418024,.00017866,87.8889,19.6999,89.4694,270.6639,0,U,45442,999,30354,-.14184642E-2,-.49E-5,0
ONEWEB-0055,2020-020V,2026-06-24T06:27:46.947168,13.11415736,.00017986,87.8889,19.6573,89.7543,270.3791,0,U,45443,999,30354,-.3664999E-5,.11E-6,0
ONEWEB-0093,2020-020W,2026-06-24T02:19:08.944320,13.11404692,.00020734,87.8892,19.6847,69.4260,290.7090,0,U,45444,999,30358,.79818611E-2,.2842E-4,0
ONEWEB-0029,2020-020X,2026-06-24T06:37:54.975936,13.11414192,.00016843,87.8879,19.6575,81.0100,279.1219,0,U,45445,999,30358,-.77781054E-3,-.263E-5,0
